[{"OBJECT_NAME":"STARLINK-35215","OBJECT_ID":"2025-218Y","EPOCH":"2026-03-09T14:48:35.904672","MEAN_MOTION":15.0564467,"ECCENTRICITY":0.0003099,"INCLINATION":97.5998,"RA_OF_ASC_NODE":292.9582,"ARG_OF_PERICENTER":91.3303,"MEAN_ANOMALY":268.8279,"EPHEMERIS_TYPE":0,"CLASSIFICATION_TYPE":"U","NORAD_CAT_ID":65813,"ELEMENT_SET_NO":999,"REV_AT_EPOCH":2496,"BSTAR":0.000209,"MEAN_MOTION_DOT":2.956e-5,"MEAN_MOTION_DDOT":0},{"OBJECT_NAME":"HAMSAT (VO-52)","OBJECT_ID":"2005-017B","EPOCH":"2026-03-09T22:34:09.009120","MEAN_MOTION":15.08773202,"ECCENTRICITY":0.00200128,"INCLINATION":97.9995,"RA_OF_ASC_NODE":87.8294,"ARG_OF_PERICENTER":17.3795,"MEAN_ANOMALY":342.8113,"EPHEMERIS_TYPE":0,"CLASSIFICATION_TYPE":"U","NORAD_CAT_ID":28650,"ELEMENT_SET_NO":999,"REV_AT_EPOCH":13179,"BSTAR":0.00045282519,"MEAN_MOTION_DOT":7.08e-5,"MEAN_MOTION_DDOT":0}]
